NAVSTAR 59 (USA 192)    
1 29601U 06052A   26190.85495700  .00000111  00000+0  00000+0 0  9998
2 29601  54.9328 213.1076 0084811  90.9838 270.0514  2.00559354143864
NAVSTAR 60 (USA 196)    
1 32260U 07047A   26190.16326571 -.00000040  00000+0  00000+0 0  9993
2 32260  54.1110  79.1599 0167587  87.8540 274.1065  2.00554162137251
NAVSTAR 61 (USA 199)    
1 32384U 07062A   26190.49495134 -.00000012  00000+0  00000+0 0  9994
2 32384  55.0139 273.2551 0036015 167.1073 200.1944  2.00561271135968
NAVSTAR 62 (USA 201)    
1 32711U 08012A   26191.06964301  .00000051  00000+0  00000+0 0  9997
2 32711  54.4996 149.0107 0211636 248.1017 109.6111  2.00572959134216
NAVSTAR 63 (USA 203)    
1 34661U 09014A   26189.00583674  .00000105  00000+0  00000+0 0  9997
2 34661  54.4818 209.8204 0143910  61.3580 307.7752  2.00572641126702
NAVSTAR 64 (USA 206)    
1 35752U 09043A   26191.23487374 -.00000053  00000+0  00000+0 0  9992
2 35752  56.2247  26.5474 0053760  84.1723  43.1557  2.00552975123820
NAVSTAR 65 (USA 213)    
1 36585U 10022A   26190.48033330  .00000113  00000+0  00000+0 0  9997
2 36585  54.2690 207.6640 0126615  66.1496 355.9932  2.00563450118048
NAVSTAR 66 (USA 232)    
1 37753U 11036A   26190.80647170 -.00000077  00000+0  00000+0 0  9990
2 37753  56.5536 331.1402 0141699  62.8224 301.1588  2.00561940109738
NAVSTAR 67 (USA 239)    
1 38833U 12053A   26191.25023182  .00000035  00000+0  00000+0 0  9994
2 38833  53.5890 142.6546 0181683  66.1329 295.7288  2.00567808 99903
NAVSTAR 68 (USA 242)    
1 39166U 13023A   26191.11781976  .00000003  00000+0  00000+0 0  9994
2 39166  54.4865 268.0387 0141385  51.1056 310.2117  2.00563312 96342
NAVSTAR 69 (USA 248)    
1 39533U 14008A   26191.11963967  .00000048  00000+0  00000+0 0  9997
2 39533  53.6572 148.3845 0084178 231.5363 127.6798  2.00561207 90144
NAVSTAR 70 (USA 251)    
1 39741U 14026A   26190.39837695 -.00000076  00000+0  00000+0 0  9997
2 39741  56.4865 330.6533 0038115 325.9438  33.8138  2.00559281 88986
NAVSTAR 71 (USA 256)    
1 40105U 14045A   26190.98872161 -.00000037  00000+0  00000+0 0  9993
2 40105  55.3675  87.5565 0034204 118.3307 242.0477  2.00559876 86535
