[
    {
        "OBJECT_NAME": "NAVSTAR 59 (USA 192)",
        "OBJECT_ID": "2006-052A",
        "EPOCH": "2026-07-09T20:31:08.284800",
        "MEAN_MOTION": 2.00559354,
        "ECCENTRICITY": 0.00848119,
        "INCLINATION": 54.9328,
        "RA_OF_ASC_NODE": 213.1076,
        "ARG_OF_PERICENTER": 90.9838,
        "MEAN_ANOMALY": 270.0514,
        "EPHEMERIS_TYPE": 0,
        "CLASSIFICATION_TYPE": "U",
        "NORAD_CAT_ID": 29601,
        "ELEMENT_SET_NO": 999,
        "REV_AT_EPOCH": 14386,
        "BSTAR": 0,
        "MEAN_MOTION_DOT": 1.11e-06,
        "MEAN_MOTION_DDOT": 0
    },
    {
        "OBJECT_NAME": "NAVSTAR 60 (USA 196)",
        "OBJECT_ID": "2007-047A",
        "EPOCH": "2026-07-09T03:55:06.157344",
        "MEAN_MOTION": 2.00554162,
        "ECCENTRICITY": 0.01675879,
        "INCLINATION": 54.111,
        "RA_OF_ASC_NODE": 79.1599,
        "ARG_OF_PERICENTER": 87.854,
        "MEAN_ANOMALY": 274.1065,
        "EPHEMERIS_TYPE": 0,
        "CLASSIFICATION_TYPE": "U",
        "NORAD_CAT_ID": 32260,
        "ELEMENT_SET_NO": 999,
        "REV_AT_EPOCH": 13725,
        "BSTAR": 0,
        "MEAN_MOTION_DOT": -4e-07,
        "MEAN_MOTION_DDOT": 0
    },
    {
        "OBJECT_NAME": "NAVSTAR 61 (USA 199)",
        "OBJECT_ID": "2007-062A",
        "EPOCH": "2026-07-09T11:52:43.795776",
        "MEAN_MOTION": 2.00561271,
        "ECCENTRICITY": 0.00360153,
        "INCLINATION": 55.0139,
        "RA_OF_ASC_NODE": 273.2551,
        "ARG_OF_PERICENTER": 167.1073,
        "MEAN_ANOMALY": 200.1944,
        "EPHEMERIS_TYPE": 0,
        "CLASSIFICATION_TYPE": "U",
        "NORAD_CAT_ID": 32384,
        "ELEMENT_SET_NO": 999,
        "REV_AT_EPOCH": 13596,
        "BSTAR": 0,
        "MEAN_MOTION_DOT": -1.2e-07,
        "MEAN_MOTION_DDOT": 0
    },
    {
        "OBJECT_NAME": "NAVSTAR 62 (USA 201)",
        "OBJECT_ID": "2008-012A",
        "EPOCH": "2026-07-10T01:40:17.156064",
        "MEAN_MOTION": 2.00572959,
        "ECCENTRICITY": 0.02116365,
        "INCLINATION": 54.4996,
        "RA_OF_ASC_NODE": 149.0107,
        "ARG_OF_PERICENTER": 248.1017,
        "MEAN_ANOMALY": 109.6111,
        "EPHEMERIS_TYPE": 0,
        "CLASSIFICATION_TYPE": "U",
        "NORAD_CAT_ID": 32711,
        "ELEMENT_SET_NO": 999,
        "REV_AT_EPOCH": 13421,
        "BSTAR": 0,
        "MEAN_MOTION_DOT": 5.1e-07,
        "MEAN_MOTION_DDOT": 0
    },
    {
        "OBJECT_NAME": "NAVSTAR 63 (USA 203)",
        "OBJECT_ID": "2009-014A",
        "EPOCH": "2026-07-08T00:08:24.294336",
        "MEAN_MOTION": 2.00572641,
        "ECCENTRICITY": 0.01439109,
        "INCLINATION": 54.4818,
        "RA_OF_ASC_NODE": 209.8204,
        "ARG_OF_PERICENTER": 61.358,
        "MEAN_ANOMALY": 307.7752,
        "EPHEMERIS_TYPE": 0,
        "CLASSIFICATION_TYPE": "U",
        "NORAD_CAT_ID": 34661,
        "ELEMENT_SET_NO": 999,
        "REV_AT_EPOCH": 12670,
        "BSTAR": 0,
        "MEAN_MOTION_DOT": 1.05e-06,
        "MEAN_MOTION_DDOT": 0
    },
    {
        "OBJECT_NAME": "NAVSTAR 64 (USA 206)",
        "OBJECT_ID": "2009-043A",
        "EPOCH": "2026-07-10T05:38:13.091136",
        "MEAN_MOTION": 2.00552975,
        "ECCENTRICITY": 0.00537608,
        "INCLINATION": 56.2247,
        "RA_OF_ASC_NODE": 26.5474,
        "ARG_OF_PERICENTER": 84.1723,
        "MEAN_ANOMALY": 43.1557,
        "EPHEMERIS_TYPE": 0,
        "CLASSIFICATION_TYPE": "U",
        "NORAD_CAT_ID": 35752,
        "ELEMENT_SET_NO": 999,
        "REV_AT_EPOCH": 12382,
        "BSTAR": 0,
        "MEAN_MOTION_DOT": -5.3e-07,
        "MEAN_MOTION_DDOT": 0
    },
    {
        "OBJECT_NAME": "NAVSTAR 65 (USA 213)",
        "OBJECT_ID": "2010-022A",
        "EPOCH": "2026-07-09T11:31:40.797120",
        "MEAN_MOTION": 2.0056345,
        "ECCENTRICITY": 0.01266153,
        "INCLINATION": 54.269,
        "RA_OF_ASC_NODE": 207.664,
        "ARG_OF_PERICENTER": 66.1496,
        "MEAN_ANOMALY": 355.9932,
        "EPHEMERIS_TYPE": 0,
        "CLASSIFICATION_TYPE": "U",
        "NORAD_CAT_ID": 36585,
        "ELEMENT_SET_NO": 999,
        "REV_AT_EPOCH": 11804,
        "BSTAR": 0,
        "MEAN_MOTION_DOT": 1.13e-06,
        "MEAN_MOTION_DDOT": 0
    },
    {
        "OBJECT_NAME": "NAVSTAR 66 (USA 232)",
        "OBJECT_ID": "2011-036A",
        "EPOCH": "2026-07-09T19:21:19.154880",
        "MEAN_MOTION": 2.0056194,
        "ECCENTRICITY": 0.01416995,
        "INCLINATION": 56.5536,
        "RA_OF_ASC_NODE": 331.1402,
        "ARG_OF_PERICENTER": 62.8224,
        "MEAN_ANOMALY": 301.1588,
        "EPHEMERIS_TYPE": 0,
        "CLASSIFICATION_TYPE": "U",
        "NORAD_CAT_ID": 37753,
        "ELEMENT_SET_NO": 999,
        "REV_AT_EPOCH": 10973,
        "BSTAR": 0,
        "MEAN_MOTION_DOT": -7.7e-07,
        "MEAN_MOTION_DDOT": 0
    },
    {
        "OBJECT_NAME": "NAVSTAR 67 (USA 239)",
        "OBJECT_ID": "2012-053A",
        "EPOCH": "2026-07-10T06:00:20.029248",
        "MEAN_MOTION": 2.00567808,
        "ECCENTRICITY": 0.01816833,
        "INCLINATION": 53.589,
        "RA_OF_ASC_NODE": 142.6546,
        "ARG_OF_PERICENTER": 66.1329,
        "MEAN_ANOMALY": 295.7288,
        "EPHEMERIS_TYPE": 0,
        "CLASSIFICATION_TYPE": "U",
        "NORAD_CAT_ID": 38833,
        "ELEMENT_SET_NO": 999,
        "REV_AT_EPOCH": 9990,
        "BSTAR": 0,
        "MEAN_MOTION_DOT": 3.5e-07,
        "MEAN_MOTION_DDOT": 0
    },
    {
        "OBJECT_NAME": "NAVSTAR 68 (USA 242)",
        "OBJECT_ID": "2013-023A",
        "EPOCH": "2026-07-10T02:49:39.627264",
        "MEAN_MOTION": 2.00563312,
        "ECCENTRICITY": 0.01413852,
        "INCLINATION": 54.4865,
        "RA_OF_ASC_NODE": 268.0387,
        "ARG_OF_PERICENTER": 51.1056,
        "MEAN_ANOMALY": 310.2117,
        "EPHEMERIS_TYPE": 0,
        "CLASSIFICATION_TYPE": "U",
        "NORAD_CAT_ID": 39166,
        "ELEMENT_SET_NO": 999,
        "REV_AT_EPOCH": 9634,
        "BSTAR": 0,
        "MEAN_MOTION_DOT": 3e-08,
        "MEAN_MOTION_DDOT": 0
    },
    {
        "OBJECT_NAME": "NAVSTAR 69 (USA 248)",
        "OBJECT_ID": "2014-008A",
        "EPOCH": "2026-07-10T02:52:16.867488",
        "MEAN_MOTION": 2.00561207,
        "ECCENTRICITY": 0.00841781,
        "INCLINATION": 53.6572,
        "RA_OF_ASC_NODE": 148.3845,
        "ARG_OF_PERICENTER": 231.5363,
        "MEAN_ANOMALY": 127.6798,
        "EPHEMERIS_TYPE": 0,
        "CLASSIFICATION_TYPE": "U",
        "NORAD_CAT_ID": 39533,
        "ELEMENT_SET_NO": 999,
        "REV_AT_EPOCH": 9014,
        "BSTAR": 0,
        "MEAN_MOTION_DOT": 4.8e-07,
        "MEAN_MOTION_DDOT": 0
    },
    {
        "OBJECT_NAME": "NAVSTAR 70 (USA 251)",
        "OBJECT_ID": "2014-026A",
        "EPOCH": "2026-07-09T09:33:39.768480",
        "MEAN_MOTION": 2.00559281,
        "ECCENTRICITY": 0.00381155,
        "INCLINATION": 56.4865,
        "RA_OF_ASC_NODE": 330.6533,
        "ARG_OF_PERICENTER": 325.9438,
        "MEAN_ANOMALY": 33.8138,
        "EPHEMERIS_TYPE": 0,
        "CLASSIFICATION_TYPE": "U",
        "NORAD_CAT_ID": 39741,
        "ELEMENT_SET_NO": 999,
        "REV_AT_EPOCH": 8898,
        "BSTAR": 0,
        "MEAN_MOTION_DOT": -7.6e-07,
        "MEAN_MOTION_DDOT": 0
    },
    {
        "OBJECT_NAME": "NAVSTAR 71 (USA 256)",
        "OBJECT_ID": "2014-045A",
        "EPOCH": "2026-07-09T23:43:45.547104",
        "MEAN_MOTION": 2.00559876,
        "ECCENTRICITY": 0.00342049,
        "INCLINATION": 55.3675,
        "RA_OF_ASC_NODE": 87.5565,
        "ARG_OF_PERICENTER": 118.3307,
        "MEAN_ANOMALY": 242.0477,
        "EPHEMERIS_TYPE": 0,
        "CLASSIFICATION_TYPE": "U",
        "NORAD_CAT_ID": 40105,
        "ELEMENT_SET_NO": 999,
        "REV_AT_EPOCH": 8653,
        "BSTAR": 0,
        "MEAN_MOTION_DOT": -3.7e-07,
        "MEAN_MOTION_DDOT": 0
    }
]
